IRIDIUM 159             
1 43578U 18061K   24269.54535221  .00000384  00000+0  13000-3 0  9994
2 43578  86.3971 319.8528 0002290  94.6806 265.4651 14.34218656323136
IRIDIUM 180             
1 43922U 19002A   24269.68438704  .00000374  00000+0  12630-3 0  9993
2 43922  86.3915 256.6248 0002327  84.5019 275.6442 14.34220319298804
IRIDIUM 176             
1 43923U 19002B   24269.57412942  .00001182  00000+0  18344-3 0  9994
2 43923  86.6046 256.6844 0002698  84.7564 275.3961 14.72262355306613
IRIDIUM 168             
1 43924U 19002C   24269.67804323  .00000120  00000+0  35710-4 0  9992
2 43924  86.3919 256.6871 0002342  87.2311 272.9153 14.34218209298741
IRIDIUM 173             
1 43925U 19002D   24269.45605225  .00000043  00000+0  84139-5 0  9993
2 43925  86.3916 256.6947 0002294  85.4771 274.6687 14.34217908298699
IRIDIUM 169             
1 43926U 19002E   24269.49429009  .00000359  00000+0  11079-3 0  9993
2 43926  86.4171 288.3306 0000558 135.2500 224.8743 14.38612268299693
IRIDIUM 172             
1 43927U 19002F   24269.72878419  .00000074  00000+0  19319-4 0  9993
2 43927  86.3915 256.5865 0002327  89.6299 270.5163 14.34218258298745
IRIDIUM 175             
1 43928U 19002G   24269.36470819  .00003262  00000+0  51315-3 0  9999
2 43928  86.1520 224.2699 0002133  93.2794 266.8666 14.72258769306579
